start=new Date('2022-03-11T00:00:00.000Z').valueOf();
sats=[{"APOAPSIS":"548.522","NORAD_CAT_ID":"47583","EPHEMERIS_TYPE":"0","REF_FRAME":"TEME","PERIAPSIS":"545.985","MEAN_MOTION_DDOT":"0.0000000000000","RCS_SIZE":"LARGE","PERIOD":"95.593","EPOCH":"2022-03-10T18:27:53.402976","TLE_LINE1":"1 47583U 21009AM  22069.76936809  .00001507  00000-0  12006-3 0  9991","FILE":"3354091","MEAN_MOTION":"15.06386924","COUNTRY_CODE":"US","MEAN_ANOMALY":"306.1814","INCLINATION":"53.0541","CENTER_NAME":"EARTH","OBJECT_TYPE":"PAYLOAD","MEAN_MOTION_DOT":"0.00001507","DECAY_DATE":null,"SEMIMAJOR_AXIS":"6925.389","TLE_LINE2":"2 47583  53.0541  95.4530 0001832  53.9344 306.1814 15.06386924 60750","REV_AT_EPOCH":"6075","BSTAR":"0.00012006000000","TIME_SYSTEM":"UTC","ELEMENT_SET_NO":"999","CLASSIFICATION_TYPE":"U","OBJECT_ID":"2021-009AM","LAUNCH_DATE":"2021-02-04","RA_OF_ASC_NODE":"95.4530","MEAN_ELEMENT_THEORY":"SGP4","GP_ID":"198438175","SITE":"AFETR","OBJECT_NAME":"STARLINK-1987","ECCENTRICITY":"0.00018320","ARG_OF_PERICENTER":"53.9344"},{"MEAN_MOTION":"15.06396497","FILE":"3354091","RCS_SIZE":"LARGE","EPOCH":"2022-03-10T19:05:02.116032","PERIOD":"95.592","MEAN_MOTION_DDOT":"0.0000000000000","TLE_LINE1":"1 47585U 21009AP  22069.79516338  .00003189  00000-0  23289-3 0  9990","MEAN_ANOMALY":"319.3141","COUNTRY_CODE":"US","EPHEMERIS_TYPE":"0","APOAPSIS":"548.753","NORAD_CAT_ID":"47585","REF_FRAME":"TEME","PERIAPSIS":"545.695","OBJECT_ID":"2021-009AP","CLASSIFICATION_TYPE":"U","MEAN_ELEMENT_THEORY":"SGP4","LAUNCH_DATE":"2021-02-04","RA_OF_ASC_NODE":"95.3402","GP_ID":"198438921","SITE":"AFETR","ECCENTRICITY":"0.00022080","ARG_OF_PERICENTER":"40.8013","OBJECT_NAME":"STARLINK-1989","CENTER_NAME":"EARTH","OBJECT_TYPE":"PAYLOAD","INCLINATION":"53.0552","MEAN_MOTION_DOT":"0.00003189","TLE_LINE2":"2 47585  53.0552  95.3402 0002208  40.8013 319.3141 15.06396497 60752","DECAY_DATE":null,"SEMIMAJOR_AXIS":"6925.359","TIME_SYSTEM":"UTC","ELEMENT_SET_NO":"999","REV_AT_EPOCH":"6075","BSTAR":"0.00023289000000"},{"ECCENTRICITY":"0.00017190","ARG_OF_PERICENTER":"53.7984","OBJECT_NAME":"STARLINK-1990","GP_ID":"198437677","SITE":"AFETR","MEAN_ELEMENT_THEORY":"SGP4","LAUNCH_DATE":"2021-02-04","RA_OF_ASC_NODE":"115.1155","OBJECT_ID":"2021-009AQ","CLASSIFICATION_TYPE":"U","TIME_SYSTEM":"UTC","ELEMENT_SET_NO":"999","REV_AT_EPOCH":"6048","BSTAR":"0.00041785000000","TLE_LINE2":"2 47586  53.0542 115.1155 0001719  53.7984 306.3164 15.06406812 60488","DECAY_DATE":null,"SEMIMAJOR_AXIS":"6925.328","MEAN_MOTION_DOT":"0.00005949","CENTER_NAME":"EARTH","OBJECT_TYPE":"PAYLOAD","INCLINATION":"53.0542","MEAN_ANOMALY":"306.3164","COUNTRY_CODE":"US","FILE":"3354091","MEAN_MOTION":"15.06406812","EPOCH":"2022-03-10T20:16:41.387808","RCS_SIZE":"LARGE","PERIOD":"95.592","MEAN_MOTION_DDOT":"0.0000000000000","TLE_LINE1":"1 47586U 21009AQ  22069.84492347  .00005949  00000-0  41785-3 0  9997","PERIAPSIS":"546.002","REF_FRAME":"TEME","EPHEMERIS_TYPE":"0","APOAPSIS":"548.383","NORAD_CAT_ID":"47586"},{"REF_FRAME":"TEME","EPHEMERIS_TYPE":"0","NORAD_CAT_ID":"47587","APOAPSIS":"548.347","PERIAPSIS":"546.120","MEAN_ANOMALY":"298.5249","COUNTRY_CODE":"US","FILE":"3354091","MEAN_MOTION":"15.06393535","TLE_LINE1":"1 47587U 21009AR  22069.77398414  .00005689  00000-0  40061-3 0  9997","PERIOD":"95.593","RCS_SIZE":"LARGE","MEAN_MOTION_DDOT":"0.0000000000000","EPOCH":"2022-03-10T18:34:32.229696","MEAN_MOTION_DOT":"0.00005689","OBJECT_TYPE":"PAYLOAD","CENTER_NAME":"EARTH","INCLINATION":"53.0552","ELEMENT_SET_NO":"999","TIME_SYSTEM":"UTC","BSTAR":"0.00040061000000","REV_AT_EPOCH":"6089","TLE_LINE2":"2 47587  53.0552  85.4475 0001608  61.5902 298.5249 15.06393535 60896","SEMIMAJOR_AXIS":"6925.368","DECAY_DATE":null,"MEAN_ELEMENT_THEORY":"SGP4","RA_OF_ASC_NODE":"85.4475","LAUNCH_DATE":"2021-02-04","CLASSIFICATION_TYPE":"U","OBJECT_ID":"2021-009AR","ARG_OF_PERICENTER":"61.5902","ECCENTRICITY":"0.00016080","OBJECT_NAME":"STARLINK-1991","SITE":"AFETR","GP_ID":"198437927"},{"REV_AT_EPOCH":"6075","BSTAR":"0.00022909000000","TIME_SYSTEM":"UTC","ELEMENT_SET_NO":"999","DECAY_DATE":null,"SEMIMAJOR_AXIS":"6925.379","TLE_LINE2":"2 47588  53.0536  95.4678 0001664  55.0743 305.0402 15.06390016 60759","MEAN_MOTION_DOT":"0.00003131","INCLINATION":"53.0536","CENTER_NAME":"EARTH","OBJECT_TYPE":"PAYLOAD","OBJECT_NAME":"STARLINK-1993","ECCENTRICITY":"0.00016640","ARG_OF_PERICENTER":"55.0743","GP_ID":"198438675","SITE":"AFETR","LAUNCH_DATE":"2021-02-04","RA_OF_ASC_NODE":"95.4678","MEAN_ELEMENT_THEORY":"SGP4","OBJECT_ID":"2021-009AS","CLASSIFICATION_TYPE":"U","PERIAPSIS":"546.092","REF_FRAME":"TEME","APOAPSIS":"548.397","NORAD_CAT_ID":"47588","EPHEMERIS_TYPE":"0","COUNTRY_CODE":"US","MEAN_ANOMALY":"305.0402","MEAN_MOTION_DDOT":"0.0000000000000","RCS_SIZE":"LARGE","PERIOD":"95.593","EPOCH":"2022-03-10T18:22:35.027616","TLE_LINE1":"1 47588U 21009AS  22069.76568319  .00003131  00000-0  22909-3 0  9991","FILE":"3354091","MEAN_MOTION":"15.06390016"},{"EPHEMERIS_TYPE":"0","APOAPSIS":"548.339","NORAD_CAT_ID":"47589","REF_FRAME":"TEME","PERIAPSIS":"546.199","FILE":"3354091","MEAN_MOTION":"15.06381983","RCS_SIZE":"LARGE","PERIOD":"95.593","EPOCH":"2022-03-10T18:49:06.527712","MEAN_MOTION_DDOT":"0.0000000000000","TLE_LINE1":"1 47589U 21009AT  22069.78410333 -.00000337  00000-0 -37274-5 0  9996","MEAN_ANOMALY":"303.4611","COUNTRY_CODE":"US","CENTER_NAME":"EARTH","OBJECT_TYPE":"PAYLOAD","INCLINATION":"53.0558","MEAN_MOTION_DOT":"-0.00000337","TLE_LINE2":"2 47589  53.0558  95.3992 0001545  56.6525 303.4611 15.06381983 60752","DECAY_DATE":null,"SEMIMAJOR_AXIS":"6925.404","TIME_SYSTEM":"UTC","ELEMENT_SET_NO":"999","REV_AT_EPOCH":"6075","BSTAR":"-0.00000372740000","OBJECT_ID":"2021-009AT","CLASSIFICATION_TYPE":"U","MEAN_ELEMENT_THEORY":"SGP4","LAUNCH_DATE":"2021-02-04","RA_OF_ASC_NODE":"95.3992","GP_ID":"198438422","SITE":"AFETR","ECCENTRICITY":"0.00015450","ARG_OF_PERICENTER":"56.6525","OBJECT_NAME":"STARLINK-1994"},{"INCLINATION":"53.0539","OBJECT_TYPE":"PAYLOAD","CENTER_NAME":"EARTH","MEAN_MOTION_DOT":"0.00008961","SEMIMAJOR_AXIS":"6925.296","DECAY_DATE":null,"TLE_LINE2":"2 47590  53.0539 114.8388 0001979  48.5341 311.5818 15.06417258 60491","BSTAR":"0.00061944000000","REV_AT_EPOCH":"6049","ELEMENT_SET_NO":"999","TIME_SYSTEM":"UTC","CLASSIFICATION_TYPE":"U","OBJECT_ID":"2021-009AU","RA_OF_ASC_NODE":"114.8388","LAUNCH_DATE":"2021-02-04","MEAN_ELEMENT_THEORY":"SGP4","SITE":"AFETR","GP_ID":"198437178","OBJECT_NAME":"STARLINK-1995","ARG_OF_PERICENTER":"48.5341","ECCENTRICITY":"0.00019790","NORAD_CAT_ID":"47590","APOAPSIS":"548.531","EPHEMERIS_TYPE":"0","REF_FRAME":"TEME","PERIAPSIS":"545.790","TLE_LINE1":"1 47590U 21009AU  22069.90757900  .00008961  00000-0  61944-3 0  9994","RCS_SIZE":"LARGE","PERIOD":"95.591","MEAN_MOTION_DDOT":"0.0000000000000","EPOCH":"2022-03-10T21:46:54.825600","FILE":"3354091","MEAN_MOTION":"15.06417258","COUNTRY_CODE":"US","MEAN_ANOMALY":"311.5818"},{"MEAN_ANOMALY":"309.4756","COUNTRY_CODE":"US","MEAN_MOTION":"15.06386949","FILE":"3354091","PERIOD":"95.593","RCS_SIZE":"LARGE","MEAN_MOTION_DDOT":"0.0000000000000","EPOCH":"2022-03-10T20:19:21.900000","TLE_LINE1":"1 47591U 21009AV  22069.84678125  .00003573  00000-0  25872-3 0  9993","REF_FRAME":"TEME","EPHEMERIS_TYPE":"0","APOAPSIS":"548.578","NORAD_CAT_ID":"47591","PERIAPSIS":"545.929","MEAN_ELEMENT_THEORY":"SGP4","LAUNCH_DATE":"2021-02-04","RA_OF_ASC_NODE":"95.1155","OBJECT_ID":"2021-009AV","CLASSIFICATION_TYPE":"U","ECCENTRICITY":"0.00019120","ARG_OF_PERICENTER":"50.6403","OBJECT_NAME":"STARLINK-1996","GP_ID":"198437428","SITE":"AFETR","MEAN_MOTION_DOT":"0.00003573","CENTER_NAME":"EARTH","OBJECT_TYPE":"PAYLOAD","INCLINATION":"53.0548","TIME_SYSTEM":"UTC","ELEMENT_SET_NO":"999","REV_AT_EPOCH":"6076","BSTAR":"0.00025872000000","TLE_LINE2":"2 47591  53.0548  95.1155 0001912  50.6403 309.4756 15.06386949 60764","DECAY_DATE":null,"SEMIMAJOR_AXIS":"6925.389"},{"MEAN_MOTION":"15.06402255","FILE":"3354091","TLE_LINE1":"1 47592U 21009AW  22069.81176896  .00008769  00000-0  60684-3 0  9991","PERIOD":"95.592","RCS_SIZE":"LARGE","EPOCH":"2022-03-10T19:28:56.838144","MEAN_MOTION_DDOT":"0.0000000000000","MEAN_ANOMALY":"296.5799","COUNTRY_CODE":"US","EPHEMERIS_TYPE":"0","NORAD_CAT_ID":"47592","APOAPSIS":"548.257","REF_FRAME":"TEME","PERIAPSIS":"546.156","OBJECT_ID":"2021-009AW","CLASSIFICATION_TYPE":"U","MEAN_ELEMENT_THEORY":"SGP4","RA_OF_ASC_NODE":"115.2762","LAUNCH_DATE":"2021-02-04","SITE":"AFETR","GP_ID":"198438176","ARG_OF_PERICENTER":"63.5346","ECCENTRICITY":"0.00015170","OBJECT_NAME":"STARLINK-1997","OBJECT_TYPE":"PAYLOAD","CENTER_NAME":"EARTH","INCLINATION":"53.0531","MEAN_MOTION_DOT":"0.00008769","TLE_LINE2":"2 47592  53.0531 115.2762 0001517  63.5346 296.5799 15.06402255 60475","SEMIMAJOR_AXIS":"6925.342","DECAY_DATE":null,"ELEMENT_SET_NO":"999","TIME_SYSTEM":"UTC","BSTAR":"0.00060684000000","REV_AT_EPOCH":"6047"},{"FILE":"3354091","MEAN_MOTION":"15.06392161","TLE_LINE1":"1 47593U 21009AX  22069.84862419  .00004447  00000-0  31732-3 0  9999","EPOCH":"2022-03-10T20:22:01.130016","RCS_SIZE":"LARGE","PERIOD":"95.593","MEAN_MOTION_DDOT":"0.0000000000000","MEAN_ANOMALY":"311.3275","COUNTRY_CODE":"US","PERIAPSIS":"545.862","EPHEMERIS_TYPE":"0","NORAD_CAT_ID":"47593","APOAPSIS":"548.614","REF_FRAME":"TEME","SITE":"AFETR","GP_ID":"198438922","ARG_OF_PERICENTER":"48.7885","ECCENTRICITY":"0.00019870","OBJECT_NAME":"STARLINK-1998","CLASSIFICATION_TYPE":"U","OBJECT_ID":"2021-009AX","MEAN_ELEMENT_THEORY":"SGP4","RA_OF_ASC_NODE":"115.0968","LAUNCH_DATE":"2021-02-04","TLE_LINE2":"2 47593  53.0533 115.0968 0001987  48.7885 311.3275 15.06392161 60488","SEMIMAJOR_AXIS":"6925.373","DECAY_DATE":null,"ELEMENT_SET_NO":"999","TIME_SYSTEM":"UTC","BSTAR":"0.00031732000000","REV_AT_EPOCH":"6048","OBJECT_TYPE":"PAYLOAD","CENTER_NAME":"EARTH","INCLINATION":"53.0533","MEAN_MOTION_DOT":"0.00004447"}];
